{
    "links": {
        "self": "http://www.neowsapp.com/rest/v1/neo/3428699?api_key=iIulBulltgU6a56xZRHN4H3l9WmuAYTsLGpBGhQ2"
    },
    "id": "3428699",
    "neo_reference_id": "3428699",
    "name": "(2008 TE)",
    "designation": "2008 TE",
    "nasa_jpl_url": "http://ssd.jpl.nasa.gov/sbdb.cgi?sstr=3428699",
    "absolute_magnitude_h": 27.7,
    "estimated_diameter": {
        "kilometers": {
            "estimated_diameter_min": 0.0076657557,
            "estimated_diameter_max": 0.0171411509
        },
        "meters": {
            "estimated_diameter_min": 7.6657557353,
            "estimated_diameter_max": 17.1411509231
        },
        "miles": {
            "estimated_diameter_min": 0.0047632783,
            "estimated_diameter_max": 0.0106510141
        },
        "feet": {
            "estimated_diameter_min": 25.1501180466,
            "estimated_diameter_max": 56.2373735944
        }
    },
    "is_potentially_hazardous_asteroid": false,
    "close_approach_data": [
        {
            "close_approach_date": "1936-04-19",
            "close_approach_date_full": "1936-Apr-19 22:28",
            "epoch_date_close_approach": -1063503120000,
            "relative_velocity": {
                "kilometers_per_second": "10.7773875641",
                "kilometers_per_hour": "38798.5952309062",
                "miles_per_hour": "24107.9382422261"
            },
            "miss_distance": {
                "astronomical": "0.0844801701",
                "lunar": "32.8627861689",
                "kilometers": "12638053.504197687",
                "miles": "7852922.3026626006"
            },
            "orbiting_body": "Mars"
        },
        {
            "close_approach_date": "2008-09-25",
            "close_approach_date_full": "2008-Sep-25 04:33",
            "epoch_date_close_approach": 1222317180000,
            "relative_velocity": {
                "kilometers_per_second": "13.0280069137",
                "kilometers_per_hour": "46900.8248894654",
                "miles_per_hour": "29142.3486653459"
            },
            "miss_distance": {
                "astronomical": "0.0099152512",
                "lunar": "3.8570327168",
                "kilometers": "1483300.460034944",
                "miles": "921680.1669884672"
            },
            "orbiting_body": "Moon"
        },
        {
            "close_approach_date": "2008-09-25",
            "close_approach_date_full": "2008-Sep-25 07:09",
            "epoch_date_close_approach": 1222326540000,
            "relative_velocity": {
                "kilometers_per_second": "12.0660255657",
                "kilometers_per_hour": "43437.6920365754",
                "miles_per_hour": "26990.4925879488"
            },
            "miss_distance": {
                "astronomical": "0.0076396945",
                "lunar": "2.9718411605",
                "kilometers": "1142882.024650715",
                "miles": "710153.959841267"
            },
            "orbiting_body": "Earth"
        },
        {
            "close_approach_date": "2010-05-06",
            "close_approach_date_full": "2010-May-06 17:54",
            "epoch_date_close_approach": 1273168440000,
            "relative_velocity": {
                "kilometers_per_second": "15.0719717878",
                "kilometers_per_hour": "54259.0984361696",
                "miles_per_hour": "33714.4936921855"
            },
            "miss_distance": {
                "astronomical": "0.109614712",
                "lunar": "42.640122968",
                "kilometers": "16398127.43586344",
                "miles": "10189323.903417872"
            },
            "orbiting_body": "Earth"
        }
    ],
    "orbital_data": {
        "orbit_id": "9",
        "orbit_determination_date": "2017-04-06 09:02:45",
        "first_observation_date": "2008-10-01",
        "last_observation_date": "2008-10-05",
        "data_arc_in_days": 4,
        "observations_used": 34,
        "orbit_uncertainty": "8",
        "minimum_orbit_intersection": "5.81583E-5",
        "jupiter_tisserand_invariant": "4.389",
        "epoch_osculation": "2454741.5",
        "eccentricity": ".4529564808579306",
        "semi_major_axis": "1.519082929720852",
        "inclination": ".3061331040179596",
        "ascending_node_longitude": "1.163156655340059",
        "orbital_period": "683.8654328325354",
        "perihelion_distance": ".8310044717431397",
        "perihelion_argument": "297.3460567878889",
        "aphelion_distance": "2.207161387698564",
        "perihelion_time": "2454688.493527387694",
        "mean_anomaly": "27.90363311886102",
        "mean_motion": ".5264193549144582",
        "equinox": "J2000",
        "orbit_class": {
            "orbit_class_type": "APO",
            "orbit_class_description": "Near-Earth asteroid orbits which cross the Earth’s orbit similar to that of 1862 Apollo",
            "orbit_class_range": "a (semi-major axis) > 1.0 AU; q (perihelion) < 1.017 AU"
        }
    },
    "is_sentry_object": false
}